NORAD_CAT_ID,OBJECT_NAME,OBJECT_TYPE,EPOCH,MEAN_MOTION,ECCENTRICITY,INCLINATION,RA_OF_ASC_NODE,ARG_OF_PERICENTER,MEAN_ANOMALY,BSTAR,MEAN_MOTION_DOT,MEAN_MOTION_DDOT,TLE_LINE0,TLE_LINE1,TLE_LINE2,SEMIMAJOR_AXIS,PERIOD,APOGEE,PERIGEE,DECAYED
51812.0,STARLINK-3610,PAYLOAD,2024-05-24 20:19:39,15.08838302,0.000223,53.2188,24.339,137.3574,222.7592,8.8737e-05,1.124e-05,0.0,0 STARLINK-3610,1 51812U 22017AW  24145.84698513  .00001124  00000-0  88737-4 0  9994,2 51812  53.2188  24.3390 0002230 137.3574 222.7592 15.08838302125492,6917.886,95.438,541.293,538.208,0.0
51812.0,STARLINK-3610,PAYLOAD,2024-05-24 21:55:02,15.08837651,0.0001392,53.2168,24.0393,84.3454,275.7697,9.2694e-05,1.188e-05,0.0,0 STARLINK-3610,1 51812U 22017AW  24145.91322857  .00001188  00000-0  92694-4 0  9994,2 51812  53.2168  24.0393 0001392  84.3454 275.7697 15.08837651125384,6917.888,95.438,540.716,538.79,0.0
51812.0,STARLINK-3610,PAYLOAD,2024-05-25 09:02:45,15.08807997,9.74e-05,53.2163,21.9584,132.0701,228.0374,-0.00035363,-5.906e-05,0.0,0 STARLINK-3610,1 51812U 22017AW  24146.37692047 -.00005906  00000-0 -35363-3 0  9999,2 51812  53.2163  21.9584 0000974 132.0701 228.0374 15.08807997125572,6917.978,95.44,540.517,539.169,0.0
51812.0,STARLINK-3610,PAYLOAD,2024-05-25 21:45:50,15.08837994,0.0001212,53.2148,19.5768,100.457,259.6559,-7.462e-05,-1.475e-05,0.0,0 STARLINK-3610,1 51812U 22017AW  24146.90682923 -.00001475  00000-0 -74620-4 0  9997,2 51812  53.2148  19.5768 0001212 100.4570 259.6559 15.08837994125655,6917.887,95.438,540.59,538.913,0.0
51812.0,STARLINK-3610,PAYLOAD,2024-05-26 15:15:04,15.08847947,0.0001259,53.2167,16.3046,106.2388,253.8742,0.00012978,1.779e-05,0.0,0 STARLINK-3610,1 51812U 22017AW  24147.63546747  .00001779  00000-0  12978-3 0  9993,2 51812  53.2167  16.3046 0001259 106.2388 253.8742 15.08847947125640,6917.856,95.437,540.592,538.85,0.0
51812.0,STARLINK-3610,PAYLOAD,2024-05-26 21:36:36,15.08856908,0.0001188,53.2161,15.119,96.9453,263.1675,0.0002811,4.191e-05,0.0,0 STARLINK-3610,1 51812U 22017AW  24147.90042255  .00004191  00000-0  28110-3 0  9994,2 51812  53.2161  15.1190 0001188  96.9453 263.1675 15.08856908125804,6917.829,95.436,540.516,538.872,0.0
51812.0,STARLINK-3610,PAYLOAD,2024-05-27 15:05:51,15.08845635,0.0001478,53.2172,11.8502,83.839,276.2771,0.00010722,1.419e-05,0.0,0 STARLINK-3610,1 51812U 22017AW  24148.62906693  .00001419  00000-0  10722-3 0  9999,2 51812  53.2172  11.8502 0001478  83.8390 276.2771 15.08845635125798,6917.863,95.437,540.751,538.706,0.0
51812.0,STARLINK-3610,PAYLOAD,2024-05-27 19:52:00,15.08852896,0.0002203,53.2169,10.9469,138.557,221.5589,5.0372e-05,5.14e-06,0.0,0 STARLINK-3610,1 51812U 22017AW  24148.82778063  .00000514  00000-0  50372-4 0  9990,2 51812  53.2169  10.9469 0002203 138.5570 221.5589 15.08852896125945,6917.841,95.437,541.23,538.182,0.0
51812.0,STARLINK-3610,PAYLOAD,2024-05-27 21:27:23,15.08846525,0.0001367,53.2176,10.6593,88.5451,271.5698,0.00011919,1.61e-05,0.0,0 STARLINK-3610,1 51812U 22017AW  24148.89402576  .00001610  00000-0  11919-3 0  9991,2 51812  53.2176  10.6593 0001367  88.5451 271.5698 15.08846525125836,6917.86,95.437,540.671,538.78,0.0
51812.0,STARLINK-3610,PAYLOAD,2024-05-28 19:42:47,15.08840073,0.0001411,53.2177,6.4949,98.7777,261.3375,-4.3198e-05,-9.75e-06,0.0,0 STARLINK-3610,1 51812U 22017AW  24149.82138648 -.00000975  00000-0 -43198-4 0  9991,2 51812  53.2177   6.4949 0001411  98.7777 261.3375 15.08840073126099,6917.88,95.438,540.721,538.769,0.0
51812.0,STARLINK-3610,PAYLOAD,2024-05-28 21:18:10,15.08843231,0.0001337,53.2173,6.1936,101.7424,258.3719,-9.611e-05,-1.817e-05,0.0,0 STARLINK-3610,1 51812U 22017AW  24149.88762506 -.00001817  00000-0 -96110-4 0  9991,2 51812  53.2173   6.1936 0001337 101.7424 258.3719 15.08843231125983,6917.871,95.437,540.66,538.811,0.0
51812.0,STARLINK-3610,PAYLOAD,2024-05-29 14:47:25,15.0883582,0.0001421,53.2181,2.9281,96.7771,263.3382,6.5409e-05,7.53e-06,0.0,0 STARLINK-3610,1 51812U 22017AW  24150.61627115  .00000753  00000-0  65409-4 0  9993,2 51812  53.2181   2.9281 0001421  96.7771 263.3382 15.08835820126091,6917.893,95.438,540.741,538.775,0.0
51812.0,STARLINK-3610,PAYLOAD,2024-05-29 21:08:58,15.08838243,0.0001431,53.2181,1.7386,98.9998,261.1156,9.3617e-05,1.202e-05,0.0,0 STARLINK-3610,1 51812U 22017AW  24150.88123086  .00001202  00000-0  93617-4 0  9992,2 51812  53.2181   1.7386 0001431  98.9998 261.1156 15.08838243126255,6917.886,95.438,540.741,538.761,0.0
51812.0,STARLINK-3610,PAYLOAD,2024-05-30 19:24:21,15.0884867,0.0001327,53.2181,357.5746,98.7545,261.3598,0.00022871,3.355e-05,0.0,0 STARLINK-3610,1 51812U 22017AW  24151.80858459  .00003355  00000-0  22871-3 0  9998,2 51812  53.2181 357.5746 0001327  98.7545 261.3598 15.08848670126399,6917.854,95.437,540.637,538.801,0.0
51812.0,STARLINK-3610,PAYLOAD,2024-05-31 00:10:30,15.08854246,0.0001399,53.2179,356.6816,102.0536,258.0613,0.00033621,5.069e-05,0.0,0 STARLINK-3610,1 51812U 22017AW  24152.00730237  .00005069  00000-0  33621-3 0  9993,2 51812  53.2179 356.6816 0001399 102.0536 258.0613 15.08854246126300,6917.837,95.437,540.67,538.734,0.0
51812.0,STARLINK-3610,PAYLOAD,2024-05-31 19:15:08,15.08846844,0.0001397,53.2179,353.1126,89.4625,270.6528,0.0001081,1.433e-05,0.0,0 STARLINK-3610,1 51812U 22017AW  24152.80218422  .00001433  00000-0  10810-3 0  9994,2 51812  53.2179 353.1126 0001397  89.4625 270.6528 15.08846844126547,6917.859,95.437,540.691,538.758,0.0
51812.0,STARLINK-3610,PAYLOAD,2024-06-01 06:22:50,15.08844776,0.0001215,53.2171,351.0312,87.1991,272.914,6.1935e-05,6.98e-06,0.0,0 STARLINK-3610,1 51812U 22017AW  24153.26586362  .00000698  00000-0  61935-4 0  9993,2 51812  53.2171 351.0312 0001215  87.1991 272.9140 15.08844776126494,6917.866,95.437,540.571,538.89,0.0
51812.0,STARLINK-3610,PAYLOAD,2024-06-01 20:41:19,15.08841415,0.0001282,53.2171,348.3556,90.0489,270.065,-5.308e-05,-1.133e-05,0.0,0 STARLINK-3610,1 51812U 22017AW  24153.86202745 -.00001133  00000-0 -53080-4 0  9998,2 51812  53.2171 348.3556 0001282  90.0489 270.0650 15.08841415126708,6917.876,95.437,540.628,538.854,0.0
51812.0,STARLINK-3610,PAYLOAD,2024-06-02 12:35:10,15.08839986,0.0001256,53.2176,345.3821,91.6869,268.4267,0.00014051,1.949e-05,0.0,0 STARLINK-3610,1 51812U 22017AW  24154.52442984  .00001949  00000-0  14051-3 0  9990,2 51812  53.2176 345.3821 0001256  91.6869 268.4267 15.08839986126687,6917.88,95.438,540.614,538.877,0.0
51812.0,STARLINK-3610,PAYLOAD,2024-06-03 06:04:25,15.08846774,0.0001299,53.2174,342.1098,92.4734,267.6407,0.00024048,3.542e-05,0.0,0 STARLINK-3610,1 51812U 22017AW  24155.25306823  .00003542  00000-0  24048-3 0  9990,2 51812  53.2174 342.1098 0001299  92.4734 267.6407 15.08846774126919,6917.86,95.437,540.623,538.826,0.0
51812.0,STARLINK-3610,PAYLOAD,2024-06-03 18:47:29,15.08862466,0.0001143,53.2165,339.7296,97.2133,262.8989,0.00049431,7.593e-05,0.0,0 STARLINK-3610,1 51812U 22017AW  24155.78297828  .00007593  00000-0  49431-3 0  9995,2 51812  53.2165 339.7296 0001143  97.2133 262.8989 15.08862466126991,6917.812,95.436,540.467,538.886,0.0
51812.0,STARLINK-3610,PAYLOAD,2024-06-04 18:38:17,15.08832795,0.000125,53.2103,335.2674,97.7534,262.36,-7.0406e-05,-1.408e-05,0.0,0 STARLINK-3610,1 51812U 22017AW  24156.77658927 -.00001408  00000-0 -70406-4 0  9994,2 51812  53.2103 335.2674 0001250  97.7534 262.3600 15.08832795127148,6917.902,95.438,540.632,538.903,0.0
51812.0,STARLINK-3610,PAYLOAD,2024-06-04 21:49:03,15.08839052,9.33e-05,53.217,334.6756,87.2415,272.8684,6.7317e-05,7.84e-06,0.0,0 STARLINK-3610,1 51812U 22017AW  24156.90906883  .00000784  00000-0  67317-4 0  9997,2 51812  53.2170 334.6756 0000933  87.2415 272.8684 15.08839052127045,6917.883,95.438,540.394,539.103,0.0
51812.0,STARLINK-3610,PAYLOAD,2024-06-05 12:07:32,15.08832902,0.0001348,53.2165,331.9985,88.936,271.1786,8.4734e-05,1.061e-05,0.0,0 STARLINK-3610,1 51812U 22017AW  24157.50523499  .00001061  00000-0  84734-4 0  9993,2 51812  53.2165 331.9985 0001348  88.9360 271.1786 15.08832902127133,6917.902,95.438,540.7,538.835,0.0
51812.0,STARLINK-3610,PAYLOAD,2024-06-05 21:39:51,15.08843981,0.0001862,53.2179,330.2176,93.2368,266.8837,0.00038202,5.798e-05,0.0,0 STARLINK-3610,1 51812U 22017AW  24157.90267418  .00005798  00000-0  38202-3 0  9992,2 51812  53.2179 330.2176 0001862  93.2368 266.8837 15.08843981127193,6917.868,95.437,541.021,538.445,0.0
51812.0,STARLINK-3610,PAYLOAD,2024-06-06 04:01:23,15.08843552,9.96e-05,53.2139,329.0229,60.8246,299.2846,0.00045829,7.014e-05,0.0,0 STARLINK-3610,1 51812U 22017AW  24158.16763631  .00007014  00000-0  45829-3 0  9995,2 51812  53.2139 329.0229 0000996  60.8246 299.2846 15.08843552127358,6917.87,95.437,540.424,539.046,0.0
51812.0,STARLINK-3610,PAYLOAD,2024-06-06 18:19:52,15.08844178,0.0001274,53.2152,326.3473,73.3537,286.7595,0.00031347,4.705e-05,0.0,0 STARLINK-3610,1 51812U 22017AW  24158.76379673  .00004705  00000-0  31347-3 0  9994,2 51812  53.2152 326.3473 0001274  73.3537 286.7595 15.08844178127443,6917.868,95.437,540.614,538.851,0.0
51812.0,STARLINK-3610,PAYLOAD,2024-06-07 18:10:39,15.08840537,7.73e-05,53.2153,321.8889,59.0734,301.0334,0.00011041,1.47e-05,0.0,0 STARLINK-3610,1 51812U 22017AW  24159.75739919  .00001470  00000-0  11041-3 0  9992,2 51812  53.2153 321.8889 0000773  59.0734 301.0334 15.08840537127591,6917.879,95.438,540.278,539.209,0.0
51812.0,STARLINK-3610,PAYLOAD,2024-06-08 03:42:57,15.08845253,0.0001422,53.2136,320.1042,87.6546,272.4609,0.00022592,3.31e-05,0.0,0 STARLINK-3610,1 51812U 22017AW  24160.15483755  .00003310  00000-0  22592-3 0  9990,2 51812  53.2136 320.1042 0001422  87.6546 272.4609 15.08845253127535,6917.864,95.437,540.713,538.746,0.0
51812.0,STARLINK-3610,PAYLOAD,2024-06-08 19:36:48,15.08861695,0.0001097,53.2122,317.1294,84.9526,275.1591,0.00039887,6.07e-05,0.0,0 STARLINK-3610,1 51812U 22017AW  24160.81722687  .00006070  00000-0  39887-3 0  9994,2 51812  53.2122 317.1294 0001097  84.9526 275.1591 15.08861695127753,6917.814,95.436,540.438,538.92,0.0
